[Satellite]
VERSION=1.1
NAME=SL-3 R/B
NICKNAME=SL-3 R/B
TLE1=1 13154U 82039B   18020.91731239  .00000288  00000-0  21945-4 0  9995
TLE2=2 13154  81.1845 344.6202 0039194 303.9468  55.8028 14.98447774936060
